"BusinessName","StreetAddress","Locality","Region","Country","Website","Phone","Email","FreePhone","FaxNumber","Mobile","AdditionalPhone","URL"
"","http://yellow.co.nz/y/clean-air-management-2005"
"","http://yellow.co.nz/y/spring-clean-waiuku"
"","http://yellow.co.nz/y/vergo-clean-mairangi"
"","http://yellow.co.nz/y/cleanscene-housewashing-exterior"
"","http://yellow.co.nz/y/clean-planet-franchise"
"","http://yellow.co.nz/y/4-sure-clean-glenfield"
"","http://yellow.co.nz/y/clean-bright"
"","http://yellow.co.nz/y/crewcut-commercial-cleaning-penrose"
"","http://yellow.co.nz/y/rams-cleaning-services"
"","http://yellow.co.nz/y/above-beyond-ceiling"
"","http://yellow.co.nz/y/thats-clean"
"","http://yellow.co.nz/y/onsite-blind-cleaning"
"","http://yellow.co.nz/y/kp-group-auckland"
"","http://yellow.co.nz/y/city-cleaning-services"
"","http://yellow.co.nz/y/eco-clean-nz"
"","http://yellow.co.nz/y/clean-planet-franchise-penrose"
"","http://yellow.co.nz/y/spring-clean"
"","http://yellow.co.nz/y/united-cleaning-services-auckland"
"","http://yellow.co.nz/y/paramount-cleaning-services-auckland"
"","http://yellow.co.nz/y/clean-it-all-mairangi"
"","http://yellow.co.nz/y/ecobuddy-clean"
"","http://yellow.co.nz/y/luv-2-clean"
"","http://yellow.co.nz/y/clean-planet-north"
"","http://yellow.co.nz/y/cleantastic-commercial-cleaners-remuera"
"","http://yellow.co.nz/y/green-acres-remuera"
"","http://yellow.co.nz/y/crest-commercial-cleaning-north-harbour"
"","http://yellow.co.nz/y/busy-bees-carpet-upholstery"
"","http://yellow.co.nz/y/crest-commercial-cleaning-east-auckland"
"","http://yellow.co.nz/y/crest-commercial-cleaning-mairangi"
"","http://yellow.co.nz/y/crest-commercial-cleaners-central"
"","http://yellow.co.nz/y/crest-commercial-cleaners-south"
"","http://yellow.co.nz/y/commercial-cleaning-1994-auckland"
"","http://yellow.co.nz/y/clean-bright-remuera"
"","http://yellow.co.nz/y/andy-andersons-industrial-services-2007"
"","http://yellow.co.nz/y/commercial-cleaning-auckland-remuera"
"","http://yellow.co.nz/y/andy-andersons-industrial-auckland"
"","http://yellow.co.nz/y/crest-commercial-cleaners-west"
"","http://yellow.co.nz/y/metro-cleaning"
"","http://yellow.co.nz/y/iss-facility-services-mount"
"","http://yellow.co.nz/y/aa-cleaning-remuera"
"","http://yellow.co.nz/y/total-property-services-auckland"
"","http://yellow.co.nz/y/a1-commercial-cleaning"
"","http://yellow.co.nz/y/cleancorp-parnell"
"","http://yellow.co.nz/y/dirty-deeds-cleaning-remuera"
"","http://yellow.co.nz/y/hbc-north-shore"
"","http://yellow.co.nz/y/snow-flake-hygiene"
"","http://yellow.co.nz/y/at-your-request-commercial"
"","http://yellow.co.nz/y/kp-group-manukau"
"","http://yellow.co.nz/y/jet-cleaning-services"
"","http://yellow.co.nz/y/prestige-home-takanini"
"","http://yellow.co.nz/y/crewcut-commercial-cleaning"
"","http://yellow.co.nz/y/cleantastic-commercial-cleaners-auckland"
"","http://yellow.co.nz/y/ecopro-cleaning-co-albany"
"","http://yellow.co.nz/y/mr-mops-commercial"
"","http://yellow.co.nz/y/we-care-cleaning"
"","http://yellow.co.nz/y/unique-services-group"
"","http://yellow.co.nz/y/alamo-cleaning-services-auckland"
"","http://yellow.co.nz/y/acclaim-cleaning-service"
"","http://yellow.co.nz/y/waste-scape-plus"
"","http://yellow.co.nz/y/clean-as-a-whistle"
"","http://yellow.co.nz/y/xclusive-commercial-cleaning"
"","http://yellow.co.nz/y/iss-facility-services-cnr"
"","http://yellow.co.nz/y/jc-cleaning-services"
"","http://yellow.co.nz/y/busy-bees-commercial"
"","http://yellow.co.nz/y/alchemya-ti-rauka-3"
"","http://yellow.co.nz/y/auckland-commercial-cleaning"
"","http://yellow.co.nz/y/royale-cleaning"
"","http://yellow.co.nz/y/civic-contractors"
"","http://yellow.co.nz/y/gentle-housewash-company-mangere"
"","http://yellow.co.nz/y/a1-commercial-cleaning-auckland"
"","http://yellow.co.nz/y/clean-every-inch"
"","http://yellow.co.nz/y/cleaning-developments"
"","http://yellow.co.nz/y/commercial-cleaning-1994"
"","http://yellow.co.nz/y/rams-cleaning-services-clover"
"","http://yellow.co.nz/y/andy-andersons-industrial-ellerslie"
"","http://yellow.co.nz/y/supercity-property-services"
"","http://yellow.co.nz/y/ext-wash-auckland-2"
"","http://yellow.co.nz/y/iss-facility-services-auckland"
"","http://yellow.co.nz/y/ocs-auckland"
"","http://yellow.co.nz/y/united-cleaning-services"
"","http://yellow.co.nz/y/double-trouble-cleaning"
"","http://yellow.co.nz/y/cherry-cleaning-co"
"","http://yellow.co.nz/y/maria-cleaning-services"
"","http://yellow.co.nz/y/icc-cleaning"
"","http://yellow.co.nz/y/performance-all-auckland"
"","http://yellow.co.nz/y/jani-king-nz-wairau"
"","http://yellow.co.nz/y/dependable-cleaning-services"
"","http://yellow.co.nz/y/system-property-maintenance"
"","http://yellow.co.nz/y/perform-cleaning"
"","http://yellow.co.nz/y/wayne-commercial-cleaning-cockle"
"","http://yellow.co.nz/y/jjs-commercial-domestic-cleaning"
"","http://yellow.co.nz/y/crest-commercial-cleaning-auckland"
"","http://yellow.co.nz/y/crystal-cleaning-services"
"","http://yellow.co.nz/y/pc-commercial-services"
"","http://yellow.co.nz/y/kleenrite-auckland-raroa"
"","http://yellow.co.nz/y/allclean-cleaning-co"
"","http://yellow.co.nz/y/top-trust-cleaning"
"","http://yellow.co.nz/y/total-property-services-gundry"
"","http://yellow.co.nz/y/ocs-eden"
"","http://yellow.co.nz/y/new-zealand-air-water"
"","http://yellow.co.nz/y/spot-on-commercial"
"","http://yellow.co.nz/y/bubbles-cleaning-services"
"","http://yellow.co.nz/y/green-acres-greenacres"
"","http://yellow.co.nz/y/blue-star-cleaning"
"","http://yellow.co.nz/y/freer-irsl"
"","http://yellow.co.nz/y/auckland-cleaners"
"","http://yellow.co.nz/y/professional-property-cleaning-services"
"","http://yellow.co.nz/y/top-cleaning"
"","http://yellow.co.nz/y/cleanaway"
"","http://yellow.co.nz/y/ofa-ki-malanata"
"","http://yellow.co.nz/y/discount-cleaning-services"
"","http://yellow.co.nz/y/golden-dew-cleaning"
"","http://yellow.co.nz/y/abs-cleaning-services"
"","http://yellow.co.nz/y/waiuku-commercial-cleaning"
"","http://yellow.co.nz/y/flying-goat-cleaning-snells"
"","http://yellow.co.nz/y/a1-nz-cleaning"
"","http://yellow.co.nz/y/total-cleaning-services-takapuna"
"","http://yellow.co.nz/y/civic-contractors-auckland"
"","http://yellow.co.nz/y/parkwood-apartments-commercial"
"","http://yellow.co.nz/y/bg-partnership"
"","http://yellow.co.nz/y/guanghui-company"
"","http://yellow.co.nz/y/wow-cleaning-services"
"","http://yellow.co.nz/y/la-cleaning-services"
"","http://yellow.co.nz/y/ace-kare-cleaning"
"","http://yellow.co.nz/y/quality-cleaning-services"
"","http://yellow.co.nz/y/pacific-cleaning-service"
"","http://yellow.co.nz/y/psc-cleaning"
"","http://yellow.co.nz/y/sparkle-cleaning-services"
"","http://yellow.co.nz/y/crawford-cleaning"
"","http://yellow.co.nz/y/red-coats-commercial"
"","http://yellow.co.nz/y/luxary-cleaning-services"
"","http://yellow.co.nz/y/enviro-site-services"
"","http://yellow.co.nz/y/vaporclean-auckland"
"","http://yellow.co.nz/y/your-request-franchise"
"","http://yellow.co.nz/y/at-your-services"
"","http://yellow.co.nz/y/jani-king-nz"
"","http://yellow.co.nz/y/raumati-tj"
"","http://yellow.co.nz/y/vac-attack-2005"
"","http://yellow.co.nz/y/celtic-property-care"
"","http://yellow.co.nz/y/link-confidential-services"
"","http://yellow.co.nz/y/above-beyond-cleaning"
"","http://yellow.co.nz/y/aa-cleaning"
"","http://yellow.co.nz/y/mctaggarts-cleaning-services"
"","http://yellow.co.nz/y/josie-cleaning"
"","http://yellow.co.nz/y/spark-commercial-cleaning"
"","http://yellow.co.nz/y/jd-cleaning-co"
"","http://yellow.co.nz/y/downtown-cleaning-services"
"","http://yellow.co.nz/y/topline-cleaning-services"
"","http://yellow.co.nz/y/dirty-deeds-cleaning"
"","http://yellow.co.nz/y/custom-cleaning-services"
"","http://yellow.co.nz/y/kiwi-choice-cleaning"
"","http://yellow.co.nz/y/pacific-cleaning"
"","http://yellow.co.nz/y/rays-cleaning-services"
"","http://yellow.co.nz/y/alisa-zhang-cleaning"
"","http://yellow.co.nz/y/fantastic-cleaning-pakuranga"
"","http://yellow.co.nz/y/d-smart-cleaning"
"","http://yellow.co.nz/y/central-cleaning-services"
"","http://yellow.co.nz/y/daystar-cleaning-services"
"","http://yellow.co.nz/y/supercity-cleaning-services"
"","http://yellow.co.nz/y/jonalta-property-maintenance"
"","http://yellow.co.nz/y/professional-cleaners-of"
"","http://yellow.co.nz/y/diamond-commercial"
"","http://yellow.co.nz/y/practicing-perfection-hibiscus"
"","http://yellow.co.nz/y/rosebuds-solutions"
"","http://yellow.co.nz/y/kccs-hygiene-management"
"","http://yellow.co.nz/y/four-seas"
"","http://yellow.co.nz/y/at-your-request"
"","http://yellow.co.nz/y/all-cleaning-services"
"","http://yellow.co.nz/y/chs-services"
"","http://yellow.co.nz/y/hot-steamy-carpet-cleaning"
"","http://yellow.co.nz/y/city-cleaning-services-auckland"
"","http://yellow.co.nz/y/commercial-cleaning-auckland-auckland-2"
