"BusinessName","StreetAddress","Locality","Region","Country","Website","Phone","Email","FreePhone","FaxNumber","Mobile","AdditionalPhone","URL"
"Clean Air Management 2005 Ltd", "Unit 3/4 Winston Pl Henderson Auckland 0610", "Henderson, Henderson", "Auckland Region", "New Zealand", "http://www.caml.co.nz", "09 836 9262", "info@caml.co.nz", "", "09 836 9253", "", "", "http://yellow.co.nz/y/clean-air-management-2005"
"Spring Clean", "Servicing: Tuakau, Pukekohe, Waiuku, Papakura, Bombay, Clarks Beach, Karaka, Patumahoe Pukekohe", "Patumahoe, Pukekohe Area", "Auckland Region", "New Zealand", "", "09 235 9333", "a.lrowan@clear.net.nz", "", "", "", "", "http://yellow.co.nz/y/spring-clean-waiuku"
"Vergo Clean", "13 Marigold Pl Mairangi Bay Auckland", "Mairangi Bay, North Shore", "Auckland Region", "New Zealand", "", "09 479 9519", "alfred@vergoclean.co.nz", "", "", "", "", "http://yellow.co.nz/y/vergo-clean-mairangi"
"CleanScene Housewashing & Exterior Surfaces", "80 Weldene Ave Glenfield Auckland 0629", "Glenfield, North Shore", "Auckland Region", "New Zealand", "http://www.cleanscene.co.nz", "09 442 2388", "info@cleanscene.co.nz", "", "09 442 2383", "", "", "http://yellow.co.nz/y/cleanscene-housewashing-exterior"
"Clean Planet Franchise Ltd", "Servicing: NORTH SHORE, Mt Roskill, Glen Eden, Henderson, Avondale, Manukau, Albany, Kumeu, Auckland", "", "Auckland Region", "New Zealand", "http://www.cleanplanet.co.nz", "09 622 0828", "info@cleanplanet.co.nz", "", "09 636 3032", "", "", "http://yellow.co.nz/y/clean-planet-franchise"
"4 Sure Clean", "3/24 Merton Ave Glenfield Auckland Call Free", "Glenfield, North Shore", "Auckland Region", "New Zealand", "http://www.4sureclean.com/", "0800 644 689", "hotmailnz@hotmail.com", "", "", "", "", "http://yellow.co.nz/y/4-sure-clean-glenfield"
"Clean Bright", "Servicing: Manukau, Remuera, Albany, Howick, Mt Roskill, St Heliers, Henderson, Manurewa, Auckland City Auckland", "Auckland City", "Auckland Region", "New Zealand", "", "09 523 3531", "cleanbright@orcon.net.nz", "", "", "", "", "http://yellow.co.nz/y/clean-bright"
"Crewcut Commercial Cleaning", "Servicing: Albany, North Shore, Pakuranga, Henderson, Waitakere, Manukau, Papakura, Howick, Penrose Auckland Call Free", "Penrose, Auckland City", "Auckland Region", "New Zealand", "http://www.crewcut.co.nz/Cleaning", "0800 800 209", "info@crewcut.co.nz", "", "095238029", "", "", "http://yellow.co.nz/y/crewcut-commercial-cleaning-penrose"
"Rams Cleaning Services", "Servicing: Manukau, Waitakere, Henderson, Penrose, Mt Wellington, Albany, East Tamaki Auckland", "East Tamaki, Manukau City", "Auckland Region", "New Zealand", "http://www.ramscleaning.co.nz", "09 263 0646", "neelesh@ramscleaning.co.nz", "", "09 263 0647", "", "", "http://yellow.co.nz/y/rams-cleaning-services"
"Above & Beyond Cleaning Services Ltd", "Servicing: Henderson, Manurewa, Manukau, Howick, Auckland Central, Mt Roskill, St Heliers, Albany, Remuera Auckland Call Free", "Remuera, Auckland City", "Auckland Region", "New Zealand", "http://www.ceilingcleaningauckland.co.nz", "0800 003 364", "chris@abovebeyondcleaning.co.nz", "", "09 625 7747", "", "", "http://yellow.co.nz/y/above-beyond-ceiling"
"Thats Clean", "PO Box 51647 Pakuranga", "", "Auckland Region", "New Zealand", "http://www.thatsclean.co.nz", "09 274 7006", "info@thatsclean.co.nz", "", "", "", "", "http://yellow.co.nz/y/thats-clean"
"Onsite Blind Cleaning", "PO Box 202266 Southgate 2246", "Conifer Grove, Takanini", "Auckland Region", "New Zealand", "http://www.onsiteblindscleaning.co.nz", "09 296 3237", "onsite.blinds@xtra.co.nz", "", "09 296 8352", "", "", "http://yellow.co.nz/y/onsite-blind-cleaning"
"KP Group Ltd", "Auckland Call Free", "", "Auckland Region", "New Zealand", "http://www.sweeping.co.nz", "0800 263 5433", "info@sweeping.co.nz", "", "092635488", "", "", "http://yellow.co.nz/y/kp-group-auckland"
"City Cleaning Services Ltd", "Servicing: Auckland CBD, Orewa, Albany, Henderson, Mt Roskill, St Heliers, Howick, Manukau, Manurewa, Remuera Auckland", "Remuera, Auckland City", "Auckland Region", "New Zealand", "http://www.citycleaning.co.nz", "09 369 1199", "info@citycleaning.co.nz", "", "09 369 1188", "", "", "http://yellow.co.nz/y/city-cleaning-services"
"Eco Clean NZ", "27/188 Quay St Auckland 1010", "", "Auckland Region", "New Zealand", "http://www.ecocleannz.com", "09 377 1548", "admin@ecocleannz.com", "", "09 377 1548", "", "", "http://yellow.co.nz/y/eco-clean-nz"
"Clean Planet Franchise Ltd", "3 Cain Rd Penrose Auckland", "Penrose, Auckland City", "Auckland Region", "New Zealand", "http://www.cleanplanet.co.nz", "09 622 0828", "info@cleanplanet.co.nz", "", "09 636 3032", "", "", "http://yellow.co.nz/y/clean-planet-franchise-penrose"
"Spring Clean", "", "Waiuku, Waiuku Area", "Auckland Region", "New Zealand", "", "09 235 9333", "a.lrowan@clear.net.nz", "", "", "", "", "http://yellow.co.nz/y/spring-clean"
"United Cleaning Services Ltd", "Servicing: Henderson, Takapuna, Ponsonby, Papakura, Manukau, Albany, Howick, Auckland", "", "Auckland Region", "New Zealand", "http://www.unitedservices.co.nz", "09 379 9693", "info@unitedservices.co.nz", "", "09 3078809", "", "", "http://yellow.co.nz/y/united-cleaning-services-auckland"
"Paramount Cleaning Services", "Servicing: Mt Wellington, Northshore, Grey Lynn, Waitakere, Ponsonby, Penrose, Manukau, Auckland Call Free", "", "Auckland Region", "New Zealand", "http://www.service-is-paramount.co.nz", "0800 112 968", "csc@paraserve.com", "", "09 376 7851", "", "", "http://yellow.co.nz/y/paramount-cleaning-services-auckland"
"Clean It All", "32 Matipo Rd Mairangi Bay Auckland 0630", "Mairangi Bay, North Shore", "Auckland Region", "New Zealand", "http://www.cleanitall.co.nz", "09 476 3164", "", "", "", "", "", "http://yellow.co.nz/y/clean-it-all-mairangi"
"Ecobuddy Clean Limited", "Level 27 PWC Tower 188 Quay St Auckland", "Auckland Central, Auckland City", "Auckland Region", "New Zealand", "http://www.ecobuddy.co.nz", "09 363 2986", "info@ecobuddy.co.nz", "", "", "", "", "http://yellow.co.nz/y/ecobuddy-clean"
"Luv 2 Clean Ltd", "64A Kaipatiki Rd Glenfield Auckland", "Glenfield, North Shore", "Auckland Region", "New Zealand", "", "09 442 5210", "venessa_luv2clean@maxnet.co.nz", "", "", "", "", "http://yellow.co.nz/y/luv-2-clean"
"Clean Planet (North Shore) Limited", "Auckland", "", "Auckland Region", "New Zealand", "http://www.cleanplanet.co.nz", "09 302 7714", "info@cleanplanet.co.nz", "", "09 636 3032", "", "", "http://yellow.co.nz/y/clean-planet-north"
"Cleantastic Commercial Cleaners - Auckland", "Servicing: Manurewa, Manukau, Albany, Howick, Mt Roskill, St Heliers, Henderson, Auckland, Remuera Auckland", "Remuera, Auckland City", "Auckland Region", "New Zealand", "http://www.cleantastic.co.nz", "09 263 8714", "gregpaget@cleantastic.com", "", "", "", "", "http://yellow.co.nz/y/cleantastic-commercial-cleaners-remuera"
"Green Acres", "Servicing: Auckland CBD, Orewa, Albany, Henderson, Mt Roskill, St Heliers, Howick, Manukau, Manurewa, Remuera Auckland Call Free", "Remuera, Auckland City", "Auckland Region", "New Zealand", "http://www.greenacres.co.nz", "0800 803 200", "", "", "", "", "", "http://yellow.co.nz/y/green-acres-remuera"
"Crest Commercial Cleaning North Harbour", "North Harbour Auckland", "Albany, North Shore", "Auckland Region", "New Zealand", "http://www.crestclean.co.nz/contact-us/north-harbour-cleaning/", "09 415 8854", "service@crestclean.co.nz", "", "", "", "", "http://yellow.co.nz/y/crest-commercial-cleaning-north-harbour"
"Busy Bees Carpet & Upholstery Cleaning", "Servicing: Henderson, Manurewa, Manukau, Howick, Auckland Central, Mt Roskill, St Heliers, Albany, Auckland Call Free", "", "Auckland Region", "New Zealand", "http://www.busybees.co.nz", "0800 287 923", "info@busybees.co.nz", "", "", "", "", "http://yellow.co.nz/y/busy-bees-carpet-upholstery"
"Crest Commercial Cleaning East Auckland", "Serciving: Howick, Pakuranga, Flat Bush, Botany, Farm Cove, Half Moon Bay, Whitford Auckland", "Whitford, Manukau City", "Auckland Region", "New Zealand", "http://www.crestclean.co.nz/contact-us/auckland-east-cleaning/", "09 573 5565", "service@crestclean.co.nz", "", "+64 3 477 1194", "", "", "http://yellow.co.nz/y/crest-commercial-cleaning-east-auckland"
"Crest Commercial Cleaning North Shore", "Servicing: Albany, Takapuna, Glenfield, Milford, Devonport, Northcote, Browns Bay, Birkenhead, Mairangi Bay Auckland", "Mairangi Bay, North Shore", "Auckland Region", "New Zealand", "http://www.crestclean.co.nz/contact-us/auckland-north-shore-cleaning/", "09 415 8854", "service@crestclean.co.nz", "", "0800 273 781", "", "", "http://yellow.co.nz/y/crest-commercial-cleaning-mairangi"
"Crest Commercial Cleaners Central Auckland", "Servicing: Newmarket, Remuera, Penrose, Ellerslie, Greenlane, Panmure, Glen Innes, Meadowbank, Mission Bay Auckland", "Mission Bay, Auckland City", "Auckland Region", "New Zealand", "http://www.crestclean.co.nz/contact-us/auckland-commercial-cleaning/", "09 368 9388", "service@crestclean.co.nz", "", "0800 273 781", "", "", "http://yellow.co.nz/y/crest-commercial-cleaners-central"
"Crest Commercial Cleaners South Auckland", "Servicing: Manukau, Papakura, Manurewa, Otahuhu, Mangere, East Tamaki, Takanini, Papatoetoe Auckland", "Papatoetoe, Manukau City", "Auckland Region", "New Zealand", "http://www.crestclean.co.nz/contact-us/auckland-south-commercial-cleaning/", "09 262 0096", "service@crestclean.co.nz", "", "0800 273 781", "", "", "http://yellow.co.nz/y/crest-commercial-cleaners-south"
"Commercial Cleaning 1994 Ltd", "Servicing: West Auckland, Avondale, New Lynn, Henderson, Highbrook, South Auckland, Auckland City Auckland", "Auckland City", "Auckland Region", "New Zealand", "http://www.thecleaner.co.nz", "09 827 4775", "kleaner@xtra.co.nz", "", "", "", "", "http://yellow.co.nz/y/commercial-cleaning-1994-auckland"
"Clean Bright Ltd", "5/53 Green La East Remuera Auckland 1050", "Remuera, Auckland City", "Auckland Region", "New Zealand", "", "09 523 3531", "cleanbright@orcon.net.nz", "", "", "", "", "http://yellow.co.nz/y/clean-bright-remuera"
"Andy Andersons Industrial Services 2007 Ltd", "Servicing: Manukau, Albany, Takapuna, Henderson, Ponsonby, Papakura, Howick, Warkworth, Auckland Call Free", "", "Auckland Region", "New Zealand", "http://www.gripguard.com.au", "0800 723 335", "safefloors@andyandersons.co.nz", "", "095224215", "", "", "http://yellow.co.nz/y/andy-andersons-industrial-services-2007"
"Commercial Cleaning Auckland Ltd", "Servicing; Penrose, Newmarket, Onehunga, Otahuhu, Ponsonby, Airport Oaks, Auckland City, Mt Wellington Auckland Cellular phone", "Mount Wellington, Auckland City", "Auckland Region", "New Zealand", "http://www.commercial-cleaning.co.nz", "022 635 6688", "helpdesk.clean@gmail.com", "", "09 8381155", "", "", "http://yellow.co.nz/y/commercial-cleaning-auckland-remuera"
"Andy Andersons Industrial Services 2007 Ltd", "Servicing: Warkworth, Henderson, Takapuna, Ponsonby, Papakura, Manukau, Albany, Howick, Auckland", "", "Auckland Region", "New Zealand", "http://www.andyandersons.co.nz", "09 579 2639", "safewrok@andyandersons.co.nz", "", "09 5224215", "", "", "http://yellow.co.nz/y/andy-andersons-industrial-auckland"
"Crest Commercial Cleaners West Auckland", "Servicing: New Lynn, Mt Eden, Grey Lynn, Avondale, Mt Albert, St Lukes, Pt Chevalier, Mt Roskill, Blockhouse Bay Auckland", "Blockhouse Bay, Auckland City", "Auckland Region", "New Zealand", "http://www.crestclean.co.nz/contact-us/auckland-west-cleaning/", "09 836 9945", "service@crestclean.co.nz", "", "0800 273 781", "", "", "http://yellow.co.nz/y/crest-commercial-cleaners-west"
"Metro Cleaning", "Servicing: Auckland CBD, Orewa, Albany, Henderson, Mt Roskill, St Heliers, Howick, Manukau, Manurewa, Remuera Auckland Call Free", "Remuera, Auckland City", "Auckland Region", "New Zealand", "http://www.metrocleaning.co.nz", "0800 638 761", "metrocleaning@rocketmail.com", "", "", "", "", "http://yellow.co.nz/y/metro-cleaning"
"ISS Facility Services", "2 Arthur Brown Pl Mt Wellington Auckland 1060", "Mount Wellington, Auckland City", "Auckland Region", "New Zealand", "http://www.nz.issworld.com", "09 573 4500", "enquiries@nz.issworld.com", "", "09 573 5645", "", "", "http://yellow.co.nz/y/iss-facility-services-mount"
"AA Cleaning", "Servicing: Auckland CBD, Orewa, Albany, Henderson, Mt Roskill, St Heliers, Howick, Manukau, Manurewa, Remuera Auckland", "Remuera, Auckland City", "Auckland Region", "New Zealand", "http://www.aaclean.co.nz", "09 265 2687", "aaclean@xtra.co.nz", "", "", "", "", "http://yellow.co.nz/y/aa-cleaning-remuera"
"ToTal Property Services (Auckland) Ltd", "22 Gundry St Newton Auckland", "Auckland Central, Auckland City", "Auckland Region", "New Zealand", "http://www.totalpropertyservices.co.nz", "09 302 2380", "Auckland@totalpropertyservices.co.nz", "", "093022384", "", "", "http://yellow.co.nz/y/total-property-services-auckland"
"A1 Commercial Cleaning Services", "Servicing Auckland - North Shore, Albany, Manukau Waitakere, Papakura, Franklin, Auckland 1004", "", "Auckland Region", "New Zealand", "http://www.a1cleaningservices.co.nz", "09 624 1412", "ashok.unka@clear.net.nz", "", "096241496", "", "", "http://yellow.co.nz/y/a1-commercial-cleaning"
"Cleancorp", "158 Beach Rd Parnell Auckland Call Free", "Parnell, Auckland City", "Auckland Region", "New Zealand", "http://www.cleancorp.co.nz", "0800 422 677", "admin@cleancorp.co.nz", "", "", "", "", "http://yellow.co.nz/y/cleancorp-parnell"
"Dirty Deeds Cleaning Ltd", "Servicing: Auckland CBD, Orewa, Albany, Henderson, Mt Roskill, St Heliers, Howick, Manukau, Manurewa, Remuera Auckland", "Remuera, Auckland City", "Auckland Region", "New Zealand", "", "09 428 2163", "dirtydeedsltd@gmail.com", "", "", "", "", "http://yellow.co.nz/y/dirty-deeds-cleaning-remuera"
"HBC & North Shore Cleaning Services Ltd", "30 Hammond Ave Hatfields Beach Hibiscus Coast", "Hatfields Beach, Hibiscus Coast", "Auckland Region", "New Zealand", "", "09 426 6225", "simon@hbcclean.co.nz", "", "", "", "", "http://yellow.co.nz/y/hbc-north-shore"
"Snow Flake Hygiene", "Henderson Auckland Cellular phone", "Henderson, West Auckland", "Auckland Region", "New Zealand", "http://www.snowflakehygiene.co.nz", "027 404 8797", "darlene@snowflakehygiene.co.nz", "", "", "", "", "http://yellow.co.nz/y/snow-flake-hygiene"
"At Your Request Commercial Cleaning", "Auckland Call Free", "", "Auckland Region", "New Zealand", "http://www.atyourrequest.co.nz", "0800 297 266", "info@atyourrequest.co.nz", "", "", "", "", "http://yellow.co.nz/y/at-your-request-commercial"
"KP Group Ltd", "18 Ryan Pl Manukau Auckland 2104", "Manukau, Manukau City", "Auckland Region", "New Zealand", "http://www.sweeping.co.nz", "09 263 5433", "info@sweeping.co.nz", "", "092635488", "", "", "http://yellow.co.nz/y/kp-group-manukau"
"Jet Cleaning Services (1995) Limited", "", "Eden Terrace, Auckland City", "Auckland Region", "New Zealand", "http://www.jetcleaning.co.nz", "09 302 1536", "enquiries@jetcleaning.co.nz", "", "09 302 1539", "", "", "http://yellow.co.nz/y/jet-cleaning-services"
"Prestige Home Groomers", "2246", "Takanini, Papakura Area", "Auckland Region", "New Zealand", "http://www.prestigehomegroomers.co.nz", "09 299 1312", "josephine@homegroomers.co.nz", "", "09 299 2313", "", "", "http://yellow.co.nz/y/prestige-home-takanini"
"Crewcut Commercial Cleaning", "Auckland Call Free", "", "Auckland Region", "New Zealand", "http://www.crewcut.co.nz/Cleaning", "0800 800 209", "info@crewcut.co.nz", "", "095238029", "", "", "http://yellow.co.nz/y/crewcut-commercial-cleaning"
"Cleantastic Commercial Cleaners - Auckland", "15A Jack Conway Ave Manukau City Auckland 2104", "Manukau, Manukau City", "Auckland Region", "New Zealand", "http://www.cleantastic.co.nz", "09 263 8714", "gregpaget@cleantastic.com", "", "", "", "", "http://yellow.co.nz/y/cleantastic-commercial-cleaners-auckland"
"The EcoPro Cleaning Co.", "16/18 Airborne Rd Albany North Shore City 0632", "Albany, North Shore", "Auckland Region", "New Zealand", "http://www.ecopro.co.nz", "09 415 9984", "info@ecopro.co.nz", "", "09 415 9920", "", "", "http://yellow.co.nz/y/ecopro-cleaning-co-albany"
"Mr Mops Commercial Cleaning", "Cellular phone", "Onehunga, Auckland City", "Auckland Region", "New Zealand", "", "021 610 264", "mr-mops@ihug.co.nz", "", "094169030", "", "", "http://yellow.co.nz/y/mr-mops-commercial"
"We Care Cleaning Ltd", "Auckland", "", "Auckland Region", "New Zealand", "http://www.wecarecleaning.co.nz", "09 929 3681", "info@wecarecleaning.co.nz", "", "09 6251698", "", "", "http://yellow.co.nz/y/we-care-cleaning"
"Unique Services Group", "6A Kellow St Manukau Auckland 2104", "Wiri, Manukau City", "Auckland Region", "New Zealand", "http://www.uniqueservices.co.nz", "09 262 1696", "sales@uniqueservices.co.nz", "", "09 262 1697", "", "", "http://yellow.co.nz/y/unique-services-group"
"Alamo Cleaning Services", "PO Box 121149 Henderson Auckland", "", "Auckland Region", "New Zealand", "", "09 416 9054", "alamocleaning@xtra.co.nz", "", "094167458", "", "", "http://yellow.co.nz/y/alamo-cleaning-services-auckland"
"Acclaim Cleaning Service", "Unit 84 49 Aberfeldy Ave Highland Park Auckland 2010", "Highland Park, Manukau City", "Auckland Region", "New Zealand", "", "09 576 4594", "oldermj@clear.net.nz", "", "", "", "", "http://yellow.co.nz/y/acclaim-cleaning-service"
"Waste Scape Plus Limited", "19 Kendrick Pl Blockhouse Bay Auckland", "Blockhouse Bay, Auckland City", "Auckland Region", "New Zealand", "http://www.wastescapeplus.co.nz", "09 828 5787", "nipa@wastescapeplus.co.nz", "", "09 828 5785", "", "", "http://yellow.co.nz/y/waste-scape-plus"
"Clean As a Whistle Ltd", "8 Bragato Pl Chatswood Auckland 0626", "Chatswood, North Shore", "Auckland Region", "New Zealand", "", "09 418 3513", "", "", "", "", "", "http://yellow.co.nz/y/clean-as-a-whistle"
"Xclusive Commercial Cleaning Services", "Call Free", "Henderson, West Auckland", "Auckland Region", "New Zealand", "http://www.xclusivecleaning.co.nz", "0800 4 xclusive", "jay@xclusivecleaning.co.nz", "", "09 8334251", "", "", "http://yellow.co.nz/y/xclusive-commercial-cleaning"
"ISS Facility Services", "2 Arthur Brown Pl Mt Wellington Auckland", "Mount Wellington, Auckland City", "Auckland Region", "New Zealand", "http://www.nz.issworld.com", "09 573 4500", "enquiries@nz.issworld.com", "", "078460031", "", "", "http://yellow.co.nz/y/iss-facility-services-cnr"
"JC Cleaning Services Ltd", "PO Box 109461 Newmarket", "Newmarket, Auckland City", "Auckland Region", "New Zealand", "http://www.jc-cleaning.co.nz", "09 828 0832", "cleaning@jc-cleaning.co.nz", "", "09 2501476", "", "", "http://yellow.co.nz/y/jc-cleaning-services"
"Busy Bees Commercial & Office Cleaning", "Servicing: Takapuna, Albany, Greenlane, Waitakere, Henderson, Manukau, Highbrook, East Tamaki, Onehunga Auckland Call Free", "Onehunga, Auckland City", "Auckland Region", "New Zealand", "http://www.busybees.co.nz/office-commercial-cleaning-auckland-christchurch/", "0800 287 923", "admin@busybees.co.nz", "", "", "", "", "http://yellow.co.nz/y/busy-bees-commercial"
"Alchemya Ltd", "PO Box 38 637 Howick", "East Tamaki, Manukau City", "Auckland Region", "New Zealand", "http://www.alchemya.co.nz", "09 271 4131", "todd@alchemya.co.nz", "", "09 2714134", "", "", "http://yellow.co.nz/y/alchemya-ti-rauka-3"
"Auckland Commercial Cleaning Services", "15 Navigator Pl Papatoetoe Auckland 2025", "Papatoetoe, Manukau City", "Auckland Region", "New Zealand", "http://www.aucklandcleaning.co.nz", "09 835 4144", "gary@aucklandcleaning.co.nz", "", "09 835 4145", "", "", "http://yellow.co.nz/y/auckland-commercial-cleaning"
"Royale Cleaning Ltd", "6 Whitworth Rd Mt Eden Auckland 1024", "Mount Eden, Auckland City", "Auckland Region", "New Zealand", "", "09 629 1530", "lepper@xtra.co.nz", "", "", "", "", "http://yellow.co.nz/y/royale-cleaning"
"Civic Contractors Ltd", "10 Southgate Pl Henderson Auckland 0612", "Henderson, West Auckland", "Auckland Region", "New Zealand", "", "09 836 6908", "sandraw@civcon.co.nz", "", "", "", "", "http://yellow.co.nz/y/civic-contractors"
"Gentle Housewash Company", "23A Waterlea Ave Mangere Bridge Auckland", "Mangere Bridge, Manukau City", "Auckland Region", "New Zealand", "http://www.gentle-housewash.co.nz", "09 622 2892", "don.d@paradise.net.nz", "", "", "", "", "http://yellow.co.nz/y/gentle-housewash-company-mangere"
"A1 Commercial Cleaning Services", "", "", "Auckland Region", "New Zealand", "http://www.a1cleaningservices.co.nz/", "09 624 1412", "ashok.unka@clear.net.nz", "", "096241496", "", "", "http://yellow.co.nz/y/a1-commercial-cleaning-auckland"
"Clean Every Inch", "", "Hillcrest, North Shore, North Shore", "Auckland Region", "New Zealand", "", "09 410 2230", "", "", "", "", "", "http://yellow.co.nz/y/clean-every-inch"
"Cleaning Developments Ltd", "76A Goodall St Hillsborough Auckland 1042", "Hillsborough, Auckland City, Auckland City", "Auckland Region", "New Zealand", "http://www.cleaningdevelopments.co.nz", "09 624 2060", "gordon@cleaningdevelopments.co.nz", "", "09 624 2060", "", "", "http://yellow.co.nz/y/cleaning-developments"
"Commercial Cleaning 1994 Ltd", "Green Bay", "Blockhouse Bay, Auckland City", "Auckland Region", "New Zealand", "http://www.thecleaner.co.nz", "09 827 4775", "a.ching@xtra.co.nz", "", "", "", "", "http://yellow.co.nz/y/commercial-cleaning-1994"
"Rams Cleaning Services", "Manukau Auckland", "Clover Park, Manukau City", "Auckland Region", "New Zealand", "http://www.ramscleaning.co.nz", "09 263 0646", "neelesh@ramscleaning.co.nz", "", "+649 263 0647", "", "", "http://yellow.co.nz/y/rams-cleaning-services-clover"
"Andy Andersons Industrial Services 2007 Ltd", "", "Ellerslie, Auckland City", "Auckland Region", "New Zealand", "http://www.andyandersons.co.nz", "09 579 2639", "safework@andyandersons.co.nz", "", "09 522 4215", "", "", "http://yellow.co.nz/y/andy-andersons-industrial-ellerslie"
"SuperCity Property Services", "Auckland Call Free", "", "Auckland Region", "New Zealand", "http://www.supercityproperty.co.nz", "0800 399 999", "info@supercityproperty.co.nz", "", "094442553", "", "", "http://yellow.co.nz/y/supercity-property-services"
"EXT Wash", "Call Free", "", "Auckland Region", "New Zealand", "", "0508 398 9274", "chlorinehousewas@hotmail.com", "", "", "", "", "http://yellow.co.nz/y/ext-wash-auckland-2"
"ISS Facility Services", "Auckland Call Free", "", "Auckland Region", "New Zealand", "http://www.nz.issworld.com", "0800 93 2532", "enquiries@nz.issworld.com", "", "078460031", "", "", "http://yellow.co.nz/y/iss-facility-services-auckland"
"OCS", "Auckland Call Free", "", "Auckland Region", "New Zealand", "http://www.ocs.co.nz", "0800 33 23 33", "", "", "", "", "", "http://yellow.co.nz/y/ocs-auckland"
"United Cleaning Services Ltd", "PO Box 738 Shortland Street", "Grey Lynn, Auckland City", "Auckland Region", "New Zealand", "http://www.unitedservices.co.nz", "09 379 9693", "info@unitedservices.co.nz", "", "09 307 8809", "", "", "http://yellow.co.nz/y/united-cleaning-services"
"Double Trouble Cleaning Services Ltd", "Rodney District Auckland", "Warkworth, Warkworth Area", "Auckland Region", "New Zealand", "http://www.dtcsl.co.nz", "09 425 7322", "", "", "", "", "", "http://yellow.co.nz/y/double-trouble-cleaning"
"Cherry Cleaning Co", "Call Free", "Henderson, Henderson", "Auckland Region", "New Zealand", "http://cherrycleaning.co.nz", "0800 282 626", "info@cherrycleaning.co.nz", "", "", "", "", "http://yellow.co.nz/y/cherry-cleaning-co"
"Maria Cleaning Services", "80D Don Buck Rd Massey Auckland 0614", "Massey, West Auckland", "Auckland Region", "New Zealand", "http://www.mariacleaning.co.nz", "09 550 4799", "info@mariacleaning.co.nz", "", "", "", "", "http://yellow.co.nz/y/maria-cleaning-services"
"ICC Cleaning", "Finance Plaza,Level-5, 22 Durham St West Auckland Central Auckland 1010", "Auckland Central, Auckland City", "Auckland Region", "New Zealand", "http://www.icc-cleaning.co.nz", "09 366 6622", "info@icc-cleaning.co.nz", "", "", "", "", "http://yellow.co.nz/y/icc-cleaning"
"Performance All Property Services Akld Ltd", "Auckland", "", "Auckland Region", "New Zealand", "http://www.performanceall.com", "09 358 2804", "cleaners@xtra.co.nz", "", "0800 200 022", "", "", "http://yellow.co.nz/y/performance-all-auckland"
"Jani-King (NZ) Limited", "PO Box 300722 Albany", "Wairau Valley, North Shore, North Shore", "Auckland Region", "New Zealand", "http://www.janiking.co.nz", "09 441 9996", "info@janiking.co.nz", "", "094419960", "", "", "http://yellow.co.nz/y/jani-king-nz-wairau"
"Dependable Cleaning Services", "9 Medway Rd Paremoremo Auckland", "Paremoremo, North Shore", "Auckland Region", "New Zealand", "", "09 413 8275", "dependable@watchdog.net.nz", "", "", "", "", "http://yellow.co.nz/y/dependable-cleaning-services"
"System Property Maintenance", "PO Box 22-457 Otahuhu", "Otahuhu, Auckland City", "Auckland Region", "New Zealand", "", "09 274 1717", "alvinauckland@gmail.com", "", "092741719", "", "", "http://yellow.co.nz/y/system-property-maintenance"
"Perform Cleaning", "PO Box 911551 Victoria Street West", "Auckland Central, Auckland City", "Auckland Region", "New Zealand", "http://www.performcleaning.co.nz", "09 354 3315", "admin@performcleaning.co.nz", "", "092697912", "", "", "http://yellow.co.nz/y/perform-cleaning"
"Wayne Commercial Cleaning Ltd", "6/44 Selwyn Rd Cockle Bay Auckland", "Cockle Bay, Manukau City", "Auckland Region", "New Zealand", "", "09 537 1551", "beemurr@xtra.co.nz", "", "", "", "", "http://yellow.co.nz/y/wayne-commercial-cleaning-cockle"
"JJ&#39;s Commercial & Domestic Cleaning", "3/157 Great South Rd Drury Auckland 2113", "Drury, Papakura Area", "Auckland Region", "New Zealand", "", "09 294 6167", "jjscleaning@xtra.co.nz", "", "", "", "", "http://yellow.co.nz/y/jjs-commercial-domestic-cleaning"
"Crest Commercial Cleaning Ltd", "", "", "Auckland Region", "New Zealand", "http://www.crestclean.co.nz", "09 262 0096", "service@crestclean.co.nz", "", "", "", "", "http://yellow.co.nz/y/crest-commercial-cleaning-auckland"
"Crystal Cleaning Services", "65 Young Access Rd Silverdale Auckland", "Wainui, Hibiscus Coast, Hibiscus Coast", "Auckland Region", "New Zealand", "", "09 427 5764", "shaunlovell@xtra.co.nz", "", "", "", "", "http://yellow.co.nz/y/crystal-cleaning-services"
"P & C Commercial Services", "Auckland", "Herald Island, West Auckland", "Auckland Region", "New Zealand", "", "09 416 9674", "topshopcleaner@xtra.co.nz", "", "", "", "", "http://yellow.co.nz/y/pc-commercial-services"
"Kleenrite (Auckland) Limited", "PO Box 112379 Penrose", "", "Auckland Region", "New Zealand", "http://www.kleenrite.co.nz", "09 579 4161", "csc@kleenrite.co.nz", "", "0800553367", "", "", "http://yellow.co.nz/y/kleenrite-auckland-raroa"
"Allclean Cleaning Co Ltd", "Penrose Auckland", "Penrose, Auckland City", "Auckland Region", "New Zealand", "", "09 579 5262", "", "", "", "", "", "http://yellow.co.nz/y/allclean-cleaning-co"
"Top Trust Cleaning Service Ltd", "33 Agincourt St Glenfield Auckland 0629 Cellular phone", "Glenfield, North Shore", "Auckland Region", "New Zealand", "", "027 475 7374", "", "", "", "", "", "http://yellow.co.nz/y/top-trust-cleaning"
"ToTal Property Services (Auckland) Ltd", "22 Gundry St Newton Auckland 1010", "Auckland Central, Auckland City", "Auckland Region", "New Zealand", "http://www.totalpropertyservices.co.nz", "09 302 2380", "reception@totalauckland.co.nz", "", "", "", "", "http://yellow.co.nz/y/total-property-services-gundry"
"OCS", "26 Virginia Ave East Eden Terrace Auckland", "Eden Terrace, Auckland City", "Auckland Region", "New Zealand", "http://www.ocs.co.nz", "09 300 9900", "", "", "", "", "", "http://yellow.co.nz/y/ocs-eden"
"New Zealand Air & Water Limited", "181A Foley Quarry Rd Albany R D 2 Auckland 3574", "Albany, North Shore", "Auckland Region", "New Zealand", "", "09 415 7416", "newzealandairandwater@gmail.com", "", "", "", "", "http://yellow.co.nz/y/new-zealand-air-water"
"Spot On Commercial Cleaners", "4 Blue Heron Rse Stanmore Bay Hibiscus Coast", "Stanmore Bay, Hibiscus Coast", "Auckland Region", "New Zealand", "http://www.spotoncleaners.co.nz", "09 428 4069", "office@spotoncleaners.co.nz", "", "", "", "", "http://yellow.co.nz/y/spot-on-commercial"
"Bubbles Cleaning Services Ltd", "Auckland", "", "Auckland Region", "New Zealand", "", "09 432 7890", "", "", "098135523", "", "", "http://yellow.co.nz/y/bubbles-cleaning-services"
"Green Acres", "Call Free", "", "Auckland Region", "New Zealand", "http://www.greenacres.co.nz", "0800 803 200", "", "", "", "", "", "http://yellow.co.nz/y/green-acres-greenacres"
"Blue Star Cleaning", "Auckland Massey Cellular phone", "Massey, West Auckland", "Auckland Region", "New Zealand", "http://www.bluestarcleaning.co.nz", "021 253 3132", "bluestarr@ihug.co.nz", "", "", "", "", "http://yellow.co.nz/y/blue-star-cleaning"
"Freer I R & S L", "2 Cape Hill Rd Pukekohe 2120", "Pukekohe, Pukekohe Area", "Auckland Region", "New Zealand", "", "09 238 3352", "", "", "", "", "", "http://yellow.co.nz/y/freer-irsl"
"Auckland Cleaners", "6 Clayton St Newmarket Auckland Call Free", "Newmarket, Auckland City", "Auckland Region", "New Zealand", "http://www.auckland-cleaners.co.nz", "09 985 6544", "service@auckland-cleaners.co.nz", "", "", "", "", "http://yellow.co.nz/y/auckland-cleaners"
"Professional Property & Cleaning Services Ltd", "PO Box 62105 Mt Wellington Auckland", "", "Auckland Region", "New Zealand", "http://www.proservice.co.nz", "09 258 5060", "info@proservice.co.nz", "", "09 258 5075", "", "", "http://yellow.co.nz/y/professional-property-cleaning-services"
"Top Cleaning", "", "Auckland Central, Auckland City", "Auckland Region", "New Zealand", "http://www.topcleaning.co.nz", "09 215 4795", "tiagoandrade7@hotmail.com", "", "", "", "", "http://yellow.co.nz/y/top-cleaning"
"Cleanaway Ltd", "71G Portage Rd Otahuhu Auckland", "Otahuhu, Auckland City", "Auckland Region", "New Zealand", "http://www.cleanaway.co.nz", "09 270 7964", "info@cleanaway.co.nz", "", "09 270 7965", "", "", "http://yellow.co.nz/y/cleanaway"
"Ofa Ki Malanata Commercial Cleaning Services", "38 Rosamund Ave Avondale Auckland 0600", "Avondale, Auckland City, Auckland City", "Auckland Region", "New Zealand", "", "09 629 0063", "ofa.ki.malanata@gmail.com", "", "", "", "", "http://yellow.co.nz/y/ofa-ki-malanata"
"Discount Cleaning Services", "1//28 Netherlands Ave Kelston Auckland", "Kelston, West Auckland", "Auckland Region", "New Zealand", "", "09 813 3949", "", "", "", "", "", "http://yellow.co.nz/y/discount-cleaning-services"
"Golden Dew Cleaning Services", "8 Essington Pl Half Moon Bay Auckland 2012", "Half Moon Bay, Manukau City, Manukau City", "Auckland Region", "New Zealand", "", "09 533 9689", "", "", "", "", "", "http://yellow.co.nz/y/golden-dew-cleaning"
"ABS Cleaning Services", "76 Urlich Dve Ranui Auckland", "Ranui, West Auckland", "Auckland Region", "New Zealand", "", "09 833 1054", "", "", "", "", "", "http://yellow.co.nz/y/abs-cleaning-services"
"Waiuku Commercial Cleaning 2003 Limited", "59 Edgewater Pde Waiuku Pukekohe 2123", "Waiuku, Waiuku Area", "Auckland Region", "New Zealand", "", "09 235 0377", "", "", "", "", "", "http://yellow.co.nz/y/waiuku-commercial-cleaning"
"Flying Goat Cleaning", "Call Free", "Snells Beach, Snells Beach Area", "Auckland Region", "New Zealand", "", "0800 969 594", "admin@flyinggoat.net", "", "", "", "", "http://yellow.co.nz/y/flying-goat-cleaning-snells"
"A1 NZ Cleaning & Services", "55 Baddeleys Beach Rd Omaha Warkworth 0986", "Tawharanui Peninsula, Warkworth Area", "Auckland Region", "New Zealand", "", "09 422 9421", "", "", "", "", "", "http://yellow.co.nz/y/a1-nz-cleaning"
"Total Cleaning Services Ltd", "PO Box 33010 Takapuna", "Takapuna, North Shore", "Auckland Region", "New Zealand", "", "09 484 0380", "", "", "", "", "", "http://yellow.co.nz/y/total-cleaning-services-takapuna"
"Civic Contractors Ltd", "132 Halsey St Auckland Central Auckland 1010", "Auckland Central, Auckland City", "Auckland Region", "New Zealand", "", "09 377 7873", "", "", "", "", "", "http://yellow.co.nz/y/civic-contractors-auckland"
"Parkwood Apartments Ltd Commercial Cleaners", "8 Moselle Ave Henderson Auckland", "Henderson, West Auckland", "Auckland Region", "New Zealand", "", "09 634 2965", "", "", "", "", "", "http://yellow.co.nz/y/parkwood-apartments-commercial"
"B G Partnership Ltd", "10 Seven Oaks Dve Pakuranga Auckland 2010", "Pakuranga, Manukau City", "Auckland Region", "New Zealand", "", "09 576 8859", "", "", "", "", "", "http://yellow.co.nz/y/bg-partnership"
"Guanghui Company Ltd", "11 Corfield Way East Tamaki Auckland 2013", "Burswood, Manukau City", "Auckland Region", "New Zealand", "", "09 273 5080", "", "", "", "", "", "http://yellow.co.nz/y/guanghui-company"
"WOW Cleaning Services Limited", "6/24 Harwood St Sandringham Auckland", "Sandringham, Auckland City", "Auckland Region", "New Zealand", "http://www.wowcleaning.co.nz", "09 940 6516", "info@wowcleaning.co.nz", "", "", "", "", "http://yellow.co.nz/y/wow-cleaning-services"
"L A Cleaning Services Ltd", "Glen Eden Auckland", "", "Auckland Region", "New Zealand", "", "09 813 4410", "", "", "", "", "", "http://yellow.co.nz/y/la-cleaning-services"
"Ace Kare Cleaning Services", "", "Browns Bay, North Shore", "Auckland Region", "New Zealand", "", "09 479 1011", "", "", "", "", "", "http://yellow.co.nz/y/ace-kare-cleaning"
"Quality Cleaning Services", "PO Box 331 181 Takapuna", "Takapuna, North Shore", "Auckland Region", "New Zealand", "", "09 489 8809", "", "", "", "", "", "http://yellow.co.nz/y/quality-cleaning-services"
"Pacific Cleaning Service Ltd", "8 Phillip Ave Glen Eden Auckland 0602", "Titirangi, West Auckland, West Auckland", "Auckland Region", "New Zealand", "", "09 813 5240", "", "", "", "", "", "http://yellow.co.nz/y/pacific-cleaning-service"
"PSC Cleaning", "43 Stamford Rd Mt Roskill Auckland", "Mount Roskill, Auckland City", "Auckland Region", "New Zealand", "", "09 625 4287", "", "", "", "", "", "http://yellow.co.nz/y/psc-cleaning"
"Sparkle Cleaning Services", "11 Marblewood Gro Pukekohe", "Pukekohe, Pukekohe Area", "Auckland Region", "New Zealand", "", "09 238 6331", "", "", "", "", "", "http://yellow.co.nz/y/sparkle-cleaning-services"
"Crawford Cleaning Ltd", "Auckland", "Sunnynook, North Shore", "Auckland Region", "New Zealand", "", "09 444 8443", "", "", "", "", "", "http://yellow.co.nz/y/crawford-cleaning"
"Red Coats Commercial Cleaning Services Ltd", "", "Albany, Albany", "Auckland Region", "New Zealand", "", "09 476 9300", "", "", "", "", "", "http://yellow.co.nz/y/red-coats-commercial"
"Luxary Cleaning Services Limited", "3/3 Parrish Rd Sandringham Auckland", "Sandringham, Auckland City", "Auckland Region", "New Zealand", "", "09 845 2050", "", "", "", "", "", "http://yellow.co.nz/y/luxary-cleaning-services"
"Enviro Site Services", "Unit A1, 169 Harris Rd East Tamaki Manukau", "East Tamaki, Manukau City", "Auckland Region", "New Zealand", "", "09 273 2900", "", "", "", "", "", "http://yellow.co.nz/y/enviro-site-services"
"Vaporclean Auckland", "Hibiscus Coast Auckland", "Hibiscus Coast", "Auckland Region", "New Zealand", "", "09 428 5916", "", "", "", "", "", "http://yellow.co.nz/y/vaporclean-auckland"
"@ Your Request Franchise Group", "36 Williamson Ave Ponsonby Auckland Call Free", "Grey Lynn, Auckland City", "Auckland Region", "New Zealand", "", "0800 297 266", "", "", "", "", "", "http://yellow.co.nz/y/your-request-franchise"
"At Your Services Commercial Care Ltd", "39 Medallion Dve Albany Auckland 0632", "Albany, North Shore", "Auckland Region", "New Zealand", "", "09 479 1688", "", "", "", "", "", "http://yellow.co.nz/y/at-your-services"
"Jani-King (NZ) Limited", "66 Hillside Rd Glenfield Auckland 0627", "Wairau Valley, North Shore, North Shore", "Auckland Region", "New Zealand", "", "09 441 9996", "", "", "", "", "", "http://yellow.co.nz/y/jani-king-nz"
"Raumati T J", "Marae O Rehia Rd R D 3 Waiuku Pukekohe", "Karioitahi, Waiuku Area", "Auckland Region", "New Zealand", "", "09 235 9437", "", "", "", "", "", "http://yellow.co.nz/y/raumati-tj"
"Vac Attack 2005 Ltd", "PO Box 2600-57 Howick East", "Pakuranga, Manukau City", "Auckland Region", "New Zealand", "", "09 576 6771", "", "", "", "", "", "http://yellow.co.nz/y/vac-attack-2005"
"Celtic Property Care", "56 Cyclarama Cre Massey Auckland 0614", "Massey, West Auckland", "Auckland Region", "New Zealand", "", "09 832 8370", "", "", "", "", "", "http://yellow.co.nz/y/celtic-property-care"
"Link Confidential Services Ltd", "PO Box 36472 Northcote Auckland", "Northcote, North Shore, North Shore", "Auckland Region", "New Zealand", "", "09 419 5346", "", "", "", "", "", "http://yellow.co.nz/y/link-confidential-services"
"Above & Beyond Cleaning Services", "Call Free", "Mount Roskill, Auckland City", "Auckland Region", "New Zealand", "", "0800 003 364", "", "", "", "", "", "http://yellow.co.nz/y/above-beyond-cleaning"
"AA Cleaning Ltd", "aa.clean@xtra.co.nz Auckland Call Free", "", "Auckland Region", "New Zealand", "http://www.aaclean.co.nz", "0800 211 688", "aaclean@xtra.co.nz", "", "", "", "", "http://yellow.co.nz/y/aa-cleaning"
"McTaggarts Cleaning Services", "106 Rhinevale Clo Henderson Auckland 0612", "Henderson, West Auckland", "Auckland Region", "New Zealand", "", "09 835 1431", "", "", "", "", "", "http://yellow.co.nz/y/mctaggarts-cleaning-services"
"Josie Cleaning", "Auckland Cellular phone", "", "Auckland Region", "New Zealand", "", "021 670 667", "", "", "", "", "", "http://yellow.co.nz/y/josie-cleaning"
"Spark Commercial Cleaning Services", "", "Mount Albert, Auckland City", "Auckland Region", "New Zealand", "", "09 815 9442", "", "", "", "", "", "http://yellow.co.nz/y/spark-commercial-cleaning"
"J & D Cleaning Co", "57 Hogans Rd Glenfield Auckland", "Glenfield, North Shore", "Auckland Region", "New Zealand", "", "09 441 9498", "", "", "", "", "", "http://yellow.co.nz/y/jd-cleaning-co"
"Downtown Cleaning Services", "2 Fort La Auckland", "Auckland Central, Auckland City", "Auckland Region", "New Zealand", "", "09 354 4423", "", "", "", "", "", "http://yellow.co.nz/y/downtown-cleaning-services"
"Topline Cleaning Services Ltd", "PO Box 8278 Symonds St", "", "Auckland Region", "New Zealand", "", "09 445 3474", "", "", "", "", "", "http://yellow.co.nz/y/topline-cleaning-services"
"Dirty Deeds Cleaning Ltd", "31 Commodore Ct Whangaparaoa Hibiscus Coast 0930", "Whangaparaoa, Hibiscus Coast", "Auckland Region", "New Zealand", "", "09 428 2163", "", "", "", "", "", "http://yellow.co.nz/y/dirty-deeds-cleaning"
"Custom Cleaning Services", "261 Otaua Rd Otaua Pukekohe 2682", "Otaua, Waiuku Area, Waiuku Area", "Auckland Region", "New Zealand", "", "09 235 7688", "", "", "", "", "", "http://yellow.co.nz/y/custom-cleaning-services"
"Kiwi Choice Cleaning", "", "Manurewa, Manukau City", "Auckland Region", "New Zealand", "", "09 275 0255", "", "", "", "", "", "http://yellow.co.nz/y/kiwi-choice-cleaning"
"Pacific Cleaning", "PO Box 47331 Ponsonby", "Ponsonby, Auckland City", "Auckland Region", "New Zealand", "", "09 638 8476", "", "", "", "", "", "http://yellow.co.nz/y/pacific-cleaning"
"Ray&#39;s Cleaning Services", "78 Marlborough Ave Glenfield Auckland 0629", "Glenfield, North Shore", "Auckland Region", "New Zealand", "", "09 443 3853", "", "", "", "", "", "http://yellow.co.nz/y/rays-cleaning-services"
"Alisa Zhang Cleaning Services Ltd", "", "Saint Johns, Auckland City", "Auckland Region", "New Zealand", "", "09 525 5189", "", "", "", "", "", "http://yellow.co.nz/y/alisa-zhang-cleaning"
"Fantastic Cleaning", "1 Wilbur Pl Pakuranga", "Pakuranga, Manukau City", "Auckland Region", "New Zealand", "", "09 577 2588", "", "", "", "", "", "http://yellow.co.nz/y/fantastic-cleaning-pakuranga"
"D Smart Cleaning Ltd", "3 Sid Pl Mangere Auckland 2022", "Mangere, Manukau City", "Auckland Region", "New Zealand", "", "09 275 6198", "", "", "", "", "", "http://yellow.co.nz/y/d-smart-cleaning"
"Central Cleaning Services Ltd", "", "Auckland Central, Auckland City", "Auckland Region", "New Zealand", "", "09 440 9016", "", "", "", "", "", "http://yellow.co.nz/y/central-cleaning-services"
"Daystar Cleaning Services", "Papakura Auckland 2110", "Papakura Area", "Auckland Region", "New Zealand", "", "09 296 9289", "", "", "", "", "", "http://yellow.co.nz/y/daystar-cleaning-services"
"Supercity Cleaning Services", "54E Alfred St Onehunga Auckland", "Onehunga, Auckland City", "Auckland Region", "New Zealand", "", "09 636 1503", "", "", "", "", "", "http://yellow.co.nz/y/supercity-cleaning-services"
"Jonalta Property Maintenance Ltd", "", "Mount Wellington, Auckland City", "Auckland Region", "New Zealand", "", "09 579 5696", "", "", "", "", "", "http://yellow.co.nz/y/jonalta-property-maintenance"
"Professional Cleaners of NZ", "38 Glenveagh Park Dve Manurewa Auckland", "Weymouth, Manukau City", "Auckland Region", "New Zealand", "", "09 269 2512", "", "", "", "", "", "http://yellow.co.nz/y/professional-cleaners-of"
"Diamond Commercial", "Auckland", "", "Auckland Region", "New Zealand", "", "09 627 3336", "", "", "", "", "", "http://yellow.co.nz/y/diamond-commercial"
"Practicing Perfection", "Hibiscus Coast", "Hibiscus Coast", "Auckland Region", "New Zealand", "", "09 426 9018", "", "", "", "", "", "http://yellow.co.nz/y/practicing-perfection-hibiscus"
"Rosebuds Solutions Ltd", "PO Box 102181 North Shore", "Albany, Albany", "Auckland Region", "New Zealand", "", "09 442 0948", "", "", "", "", "", "http://yellow.co.nz/y/rosebuds-solutions"
"KCCS Hygiene Management Solutions", "PO Box 84079 Westgate", "Massey, West Auckland", "Auckland Region", "New Zealand", "", "09 832 1160", "", "", "", "", "", "http://yellow.co.nz/y/kccs-hygiene-management"
"Four Seas Ltd", "", "Auckland Central, Auckland City", "Auckland Region", "New Zealand", "", "09 443 1320", "", "", "", "", "", "http://yellow.co.nz/y/four-seas"
"At Your Request", "Call Free", "", "Auckland Region", "New Zealand", "", "0800 297 297", "none@none.com", "", "", "", "", "http://yellow.co.nz/y/at-your-request"
"All Cleaning Services", "Auckland", "", "Auckland Region", "New Zealand", "", "09 277 0094", "", "", "", "", "", "http://yellow.co.nz/y/all-cleaning-services"
"CHS Services", "3 Mossford Grn Papakura Auckland 2113", "Papakura Area", "Auckland Region", "New Zealand", "", "09 298 5946", "", "", "", "", "", "http://yellow.co.nz/y/chs-services"
"Hot & Steamy Carpet Cleaning and Pest Control", "", "Glen Innes, Auckland City", "Auckland Region", "New Zealand", "", "09 528 0543", "", "", "", "", "", "http://yellow.co.nz/y/hot-steamy-carpet-cleaning"
"City Cleaning Services Ltd", "13 Galatos St Newton Auckland 1001 Call Free", "Auckland Central, Auckland City", "Auckland Region", "New Zealand", "", "0800 369 1199", "", "", "", "", "", "http://yellow.co.nz/y/city-cleaning-services-auckland"
"Commercial Cleaning Auckland Ltd", "Cellular phone", "", "Auckland Region", "New Zealand", "", "022 635 6688", "", "", "", "", "", "http://yellow.co.nz/y/commercial-cleaning-auckland-auckland-2"
